LANDSAT 9               
1 49260U 21088A   24258.92217419  .00001870  00000+0  42502-3 0  9997
2 49260  98.2246 327.4068 0001304  88.3923 271.7424 14.57111391157761
